[{"OBJECT_NAME":"STARLINK-31097","OBJECT_ID":"2024-002P","EPOCH":"2026-03-09T16:17:05.788608","MEAN_MOTION":15.30182949,"ECCENTRICITY":0.00011833,"INCLINATION":53.1599,"RA_OF_ASC_NODE":229.9809,"ARG_OF_PERICENTER":87.2655,"MEAN_ANOMALY":272.8481,"EPHEMERIS_TYPE":0,"CLASSIFICATION_TYPE":"U","NORAD_CAT_ID":58718,"ELEMENT_SET_NO":999,"REV_AT_EPOCH":12201,"BSTAR":-5.1470585e-5,"MEAN_MOTION_DOT":-1.882e-5,"MEAN_MOTION_DDOT":0},{"OBJECT_NAME":"COSMOS 1782","OBJECT_ID":"1986-074A","EPOCH":"2026-03-09T22:40:22.374624","MEAN_MOTION":15.33314157,"ECCENTRICITY":0.00054418,"INCLINATION":82.5242,"RA_OF_ASC_NODE":238.1482,"ARG_OF_PERICENTER":197.7479,"MEAN_ANOMALY":162.3574,"EPHEMERIS_TYPE":0,"CLASSIFICATION_TYPE":"U","NORAD_CAT_ID":16986,"ELEMENT_SET_NO":999,"REV_AT_EPOCH":13134,"BSTAR":0.00042191031,"MEAN_MOTION_DOT":0.00013623,"MEAN_MOTION_DDOT":0}]
